NORAD_CAT_ID,OBJECT_NAME,OBJECT_TYPE,EPOCH,MEAN_MOTION,ECCENTRICITY,INCLINATION,RA_OF_ASC_NODE,ARG_OF_PERICENTER,MEAN_ANOMALY,BSTAR,MEAN_MOTION_DOT,MEAN_MOTION_DDOT,TLE_LINE0,TLE_LINE1,TLE_LINE2,SEMIMAJOR_AXIS,PERIOD,APOGEE,PERIGEE,DECAYED
54161.0,STARLINK-5269,PAYLOAD,2023-04-15 05:32:36,15.08841387,0.0001237,53.2171,90.3106,88.0617,272.0517,8.0097e-05,9.87e-06,0.0,0 STARLINK-5269,1 54161U 22141E   23105.23097237  .00000987  00000-0  80097-4 0  9993,2 54161  53.2171  90.3106 0001237  88.0617 272.0517 15.08841387 25770,6917.876,95.437,540.597,538.885,0.0
54161.0,STARLINK-5269,PAYLOAD,2023-04-16 05:23:22,15.0884999,0.0001076,53.2169,85.8505,86.5518,273.5597,1.3484e-05,-7.3e-07,0.0,0 STARLINK-5269,1 54161U 22141E   23106.22456835 -.00000073  00000-0  13484-4 0  9999,2 54161  53.2169  85.8505 0001076  86.5518 273.5597 15.08849990 25922,6917.85,95.437,540.459,538.97,0.0
54161.0,STARLINK-5269,PAYLOAD,2023-04-16 08:34:08,15.0885174,0.0001144,53.2169,85.2556,87.8695,272.2428,3.4331e-05,2.59e-06,0.0,0 STARLINK-5269,1 54161U 22141E   23106.35704623  .00000259  00000-0  34331-4 0  9993,2 54161  53.2169  85.2556 0001144  87.8695 272.2428 15.08851740 25945,6917.845,95.437,540.501,538.918,0.0
54161.0,STARLINK-5269,PAYLOAD,2023-04-17 05:14:10,15.08842132,0.0001204,53.2154,81.389,92.7128,267.4002,0.00014355,1.998e-05,0.0,0 STARLINK-5269,1 54161U 22141E   23107.21817342  .00001998  00000-0  14355-3 0  9996,2 54161  53.2154  81.3890 0001204  92.7128 267.4002 15.08842132 26074,6917.874,95.437,540.572,538.906,0.0
54161.0,STARLINK-5269,PAYLOAD,2023-04-17 08:24:56,15.08845265,0.0001245,53.2167,80.7954,94.9755,265.138,0.0001584,2.234e-05,0.0,0 STARLINK-5269,1 54161U 22141E   23107.35065196  .00002234  00000-0  15840-3 0  9997,2 54161  53.2167  80.7954 0001245  94.9755 265.1380 15.08845265 26093,6917.864,95.437,540.591,538.868,0.0
54161.0,STARLINK-5269,PAYLOAD,2023-04-18 05:04:57,15.08837227,0.0001168,53.2188,76.9321,93.9911,266.1214,6.9163e-05,8.13e-06,0.0,0 STARLINK-5269,1 54161U 22141E   23108.21178044  .00000813  00000-0  69163-4 0  9999,2 54161  53.2188  76.9321 0001168  93.9911 266.1214 15.08837227 26229,6917.889,95.438,540.562,538.946,0.0
54161.0,STARLINK-5269,PAYLOAD,2023-04-18 08:15:43,15.08839556,0.0001138,53.2174,76.335,90.2279,269.8843,8.2363e-05,1.023e-05,0.0,0 STARLINK-5269,1 54161U 22141E   23108.34425877  .00001023  00000-0  82363-4 0  9993,2 54161  53.2174  76.3350 0001138  90.2279 269.8843 15.08839556 26241,6917.882,95.438,540.534,538.959,0.0
54161.0,STARLINK-5269,PAYLOAD,2023-04-18 20:58:49,15.08831959,0.0001184,53.2167,73.9558,98.3111,261.8016,0.00010869,1.442e-05,0.0,0 STARLINK-5269,1 54161U 22141E   23108.87418534  .00001442  00000-0  10869-3 0  9999,2 54161  53.2167  73.9558 0001184  98.3111 261.8016 15.08831959 26323,6917.905,95.438,540.589,538.951,0.0
54161.0,STARLINK-5269,PAYLOAD,2023-04-19 06:31:08,15.08842181,0.0001143,53.2169,72.1714,96.3018,263.8104,9.9568e-05,1.297e-05,0.0,0 STARLINK-5269,1 54161U 22141E   23109.27162099  .00001297  00000-0  99568-4 0  9998,2 54161  53.2169  72.1714 0001143  96.3018 263.8104 15.08842181 26384,6917.874,95.437,540.529,538.948,0.0
54161.0,STARLINK-5269,PAYLOAD,2023-04-20 04:46:31,15.08845788,0.0001298,53.2175,68.0076,89.5591,270.555,0.00020766,3.019e-05,0.0,0 STARLINK-5269,1 54161U 22141E   23110.19897956  .00003019  00000-0  20766-3 0  9995,2 54161  53.2175  68.0076 0001298  89.5591 270.5550 15.08845788 26529,6917.863,95.437,540.626,538.83,0.0
54161.0,STARLINK-5269,PAYLOAD,2023-04-21 06:12:42,15.08837496,0.0001327,53.2172,63.2492,97.8721,262.2422,3.1445e-05,2.13e-06,0.0,0 STARLINK-5269,1 54161U 22141E   23111.25882539  .00000213  00000-0  31445-4 0  9994,2 54161  53.2172  63.2492 0001327  97.8721 262.2422 15.08837496 26685,6917.888,95.438,540.671,538.835,0.0
54161.0,STARLINK-5269,PAYLOAD,2023-04-21 14:09:38,15.08838803,0.0001266,53.2172,61.7633,95.6584,264.4553,5.0893e-05,5.22e-06,0.0,0 STARLINK-5269,1 54161U 22141E   23111.59002624  .00000522  00000-0  50893-4 0  9991,2 54161  53.2172  61.7633 0001266  95.6584 264.4553 15.08838803 26738,6917.884,95.438,540.625,538.873,0.0
54161.0,STARLINK-5269,PAYLOAD,2023-04-22 02:52:43,15.08845751,0.0001277,53.2177,59.3848,103.2815,256.832,1.4281e-05,-6.1e-07,0.0,0 STARLINK-5269,1 54161U 22141E   23112.11994484 -.00000061  00000-0  14281-4 0  9994,2 54161  53.2177  59.3848 0001277 103.2815 256.8320 15.08845751 26815,6917.863,95.437,540.611,538.844,0.0
54161.0,STARLINK-5269,PAYLOAD,2023-04-23 02:43:29,15.08848008,0.0001133,53.2155,54.9251,91.6513,268.4609,0.00019506,2.819e-05,0.0,0 STARLINK-5269,1 54161U 22141E   23113.11353848  .00002819  00000-0  19506-3 0  9994,2 54161  53.2155  54.9251 0001133  91.6513 268.4609 15.08848008 26969,6917.856,95.437,540.505,538.937,0.0
54161.0,STARLINK-5269,PAYLOAD,2023-04-23 05:54:15,15.08847143,0.000114,53.2163,54.3301,94.8508,265.2614,0.00017073,2.431e-05,0.0,0 STARLINK-5269,1 54161U 22141E   23113.24601639  .00002431  00000-0  17073-3 0  9999,2 54161  53.2163  54.3301 0001140  94.8508 265.2614 15.08847143 26987,6917.859,95.437,540.512,538.935,0.0
54161.0,STARLINK-5269,PAYLOAD,2023-04-24 05:45:02,15.08855183,0.0001566,53.2171,49.8692,89.6098,270.5074,0.00018055,2.588e-05,0.0,0 STARLINK-5269,1 54161U 22141E   23114.23961381  .00002588  00000-0  18055-3 0  9996,2 54161  53.2171  49.8692 0001566  89.6098 270.5074 15.08855183 27136,6917.834,95.437,540.782,538.616,0.0
54161.0,STARLINK-5269,PAYLOAD,2023-04-25 05:35:46,15.08882687,0.0001041,53.2178,45.4097,96.754,263.3571,0.00039743,6.05e-05,0.0,0 STARLINK-5269,1 54161U 22141E   23115.23318145  .00006050  00000-0  39743-3 0  9996,2 54161  53.2178  45.4097 0001041  96.7540 263.3571 15.08882687 27280,6917.75,95.435,540.335,538.895,0.0
54161.0,STARLINK-5269,PAYLOAD,2023-04-26 05:26:37,15.08807487,0.0001107,53.217,40.9505,89.8588,270.2531,-0.00056809,-9.309e-05,0.0,0 STARLINK-5269,1 54161U 22141E   23116.22682864 -.00009309  00000-0 -56809-3 0  9992,2 54161  53.2170  40.9505 0001107  89.8588 270.2531 15.08807487 27439,6917.98,95.44,540.611,539.079,0.0
54161.0,STARLINK-5269,PAYLOAD,2023-04-27 05:17:25,15.08832126,9e-05,53.2195,36.4894,115.8152,244.2933,-0.0002551,-4.344e-05,0.0,0 STARLINK-5269,1 54161U 22141E   23117.22043288 -.00004344  00000-0 -25510-3 0  9993,2 54161  53.2195  36.4894 0000900 115.8152 244.2933 15.08832126 27585,6917.904,95.438,540.392,539.147,0.0
54161.0,STARLINK-5269,PAYLOAD,2023-04-28 03:32:49,15.08846015,0.0001462,53.2174,32.3226,88.4586,271.6573,0.00062743,9.713e-05,0.0,0 STARLINK-5269,1 54161U 22141E   23118.14779521  .00009713  00000-0  62743-3 0  9993,2 54161  53.2174  32.3226 0001462  88.4586 271.6573 15.08846015 27728,6917.862,95.437,540.738,538.716,0.0
54161.0,STARLINK-5269,PAYLOAD,2023-04-28 11:29:45,15.08837651,0.0001052,53.2172,30.8407,89.2573,270.8539,0.00047903,7.344e-05,0.0,0 STARLINK-5269,1 54161U 22141E   23118.47900127  .00007344  00000-0  47903-3 0  9996,2 54161  53.2172  30.8407 0001052  89.2573 270.8539 15.08837651 27774,6917.888,95.438,540.48,539.025,0.0
54161.0,STARLINK-5269,PAYLOAD,2023-04-29 00:12:50,15.08846853,0.0001081,53.2177,28.4624,80.7462,279.3652,1.966e-05,2.5e-07,0.0,0 STARLINK-5269,1 54161U 22141E   23119.00891726  .00000025  00000-0  19660-4 0  9999,2 54161  53.2177  28.4624 0001081  80.7462 279.3652 15.08846853 27851,6917.859,95.437,540.472,538.977,0.0
54161.0,STARLINK-5269,PAYLOAD,2023-04-30 03:14:22,15.08858096,0.0001169,53.2176,23.4041,100.6407,259.4716,5.1118e-05,5.26e-06,0.0,0 STARLINK-5269,1 54161U 22141E   23120.13498492  .00000526  00000-0  51118-4 0  9998,2 54161  53.2176  23.4041 0001169 100.6407 259.4716 15.08858096 28028,6917.825,95.436,540.499,538.881,0.0
54161.0,STARLINK-5269,PAYLOAD,2023-05-01 03:05:10,15.08844411,0.0001345,53.2188,18.9436,98.355,261.7595,0.00011962,1.617e-05,0.0,0 STARLINK-5269,1 54161U 22141E   23121.12859135  .00001617  00000-0  11962-3 0  9997,2 54161  53.2188  18.9436 0001345  98.3550 261.7595 15.08844411 28179,6917.867,95.437,540.662,538.801,0.0
54161.0,STARLINK-5269,PAYLOAD,2023-05-01 22:09:47,15.08851202,0.0001324,53.2185,15.3758,105.1684,254.9454,0.00011931,1.612e-05,0.0,0 STARLINK-5269,1 54161U 22141E   23121.92346579  .00001612  00000-0  11931-3 0  9999,2 54161  53.2185  15.3758 0001324 105.1684 254.9454 15.08851202 28293,6917.846,95.437,540.627,538.795,0.0
54161.0,STARLINK-5269,PAYLOAD,2023-05-02 02:55:56,15.08849332,0.000128,53.2184,14.4823,111.9566,248.1563,0.00010769,1.427e-05,0.0,0 STARLINK-5269,1 54161U 22141E   23122.12218636  .00001427  00000-0  10769-3 0  9996,2 54161  53.2184  14.4823 0001280 111.9566 248.1563 15.08849332 28321,6917.852,95.437,540.602,538.831,0.0
54161.0,STARLINK-5269,PAYLOAD,2023-05-02 17:14:25,15.08845437,0.0001555,53.2177,11.8082,86.3531,273.7639,0.0001268,1.731e-05,0.0,0 STARLINK-5269,1 54161U 22141E   23122.71834954  .00001731  00000-0  12680-3 0  9990,2 54161  53.2177  11.8082 0001555  86.3531 273.7639 15.08845437 28413,6917.864,95.437,540.804,538.653,0.0
54161.0,STARLINK-5269,PAYLOAD,2023-05-02 20:25:11,15.08842666,0.0001188,53.2173,11.2114,104.0992,256.0132,0.00012826,1.754e-05,0.0,0 STARLINK-5269,1 54161U 22141E   23122.85082992  .00001754  00000-0  12826-3 0  9999,2 54161  53.2173  11.2114 0001188 104.0992 256.0132 15.08842666 28435,6917.872,95.437,540.559,538.915,0.0
54161.0,STARLINK-5269,PAYLOAD,2023-05-03 09:08:16,15.08838541,9.57e-05,53.2161,8.8346,81.4481,278.6619,1.6215e-05,-3e-07,0.0,0 STARLINK-5269,1 54161U 22141E   23123.38075148 -.00000030  00000-0  16215-4 0  9997,2 54161  53.2161   8.8346 0000957  81.4481 278.6619 15.08838541 28511,6917.885,95.438,540.412,539.088,0.0
54161.0,STARLINK-5269,PAYLOAD,2023-05-03 21:51:21,15.08848935,0.0001086,53.2171,6.4563,102.7016,257.4098,-0.00018269,-3.195e-05,0.0,0 STARLINK-5269,1 54161U 22141E   23123.91066706 -.00003195  00000-0 -18269-3 0  9992,2 54161  53.2171   6.4563 0001086 102.7016 257.4098 15.08848935 28594,6917.853,95.437,540.469,538.967,0.0
